[{"OBJECT_NAME":"STARLINK-3735","OBJECT_ID":"2022-029AE","EPOCH":"2026-03-09T09:54:38.408256","MEAN_MOTION":15.0883316,"ECCENTRICITY":0.00014655,"INCLINATION":53.2171,"RA_OF_ASC_NODE":80.3624,"ARG_OF_PERICENTER":68.6524,"MEAN_ANOMALY":291.4625,"EPHEMERIS_TYPE":0,"CLASSIFICATION_TYPE":"U","NORAD_CAT_ID":52116,"ELEMENT_SET_NO":999,"REV_AT_EPOCH":22074,"BSTAR":9.5846924e-5,"MEAN_MOTION_DOT":1.238e-5,"MEAN_MOTION_DDOT":0},{"OBJECT_NAME":"NOAA 17 DEB","OBJECT_ID":"2002-032DT","EPOCH":"2026-03-08T22:47:54.624192","MEAN_MOTION":15.08678856,"ECCENTRICITY":0.0018728,"INCLINATION":98.77,"RA_OF_ASC_NODE":121.3607,"ARG_OF_PERICENTER":298.7191,"MEAN_ANOMALY":61.2152,"EPHEMERIS_TYPE":0,"CLASSIFICATION_TYPE":"U","NORAD_CAT_ID":49489,"ELEMENT_SET_NO":999,"REV_AT_EPOCH":24229,"BSTAR":0.0068247859,"MEAN_MOTION_DOT":0.00108865,"MEAN_MOTION_DDOT":0}]
